0 COSMOS 1594 (GLONASS)
1 15260U 84095B   13280.47508725  .00000029  00000-0  00000+0 0  5820
2 15260 064.1411 233.5438 0006249 177.7702 291.6195 02.12637007225935
0 COSMOS 1594 (GLONASS)
1 15260U 84095B   13283.87479262  .00000023  00000-0  00000+0 0  5835
2 15260 064.1400 233.4265 0006280 177.4967 014.3424 02.12637114226019
0 COSMOS 1594 (GLONASS)
1 15260U 84095B   13287.25645241 -.00000024  00000-0  00000+0 0  5846
2 15260 064.1391 233.3099 0006281 177.4161 083.0599 02.12637210226089
0 COSMOS 1594 (GLONASS)
1 15260U 84095B   13290.02711124 -.00000039  00000-0  00000+0 0  5856
2 15260 064.1385 233.2144 0006270 177.5870 043.8109 02.12637245226144
0 COSMOS 1594 (GLONASS)
1 15260U 84095B   13293.81878714 -.00000009  00000-0  00000+0 0  5863
2 15260 064.1377 233.0838 0006230 177.3682 066.5362 02.12637188226226
